GLOBALSTAR M067         
1 32263U 07048A   25295.96925324 -.00000073  00000+0  17757-3 0  9998
2 32263  51.9754  22.0267 0000762 224.6202 306.8079 12.40680086825341
GLOBALSTAR M070         
1 32264U 07048B   25295.95611313 -.00000101  00000+0  14889-4 0  9994
2 32264  51.9731  99.2624 0001067  95.7184  72.6832 12.62324898829805
GLOBALSTAR M066         
1 32265U 07048C   25295.97001299 -.00000099  00000+0 -34957-4 0  9998
2 32265  51.9607  18.8902 0004394 262.8383 268.7704 12.30377635831023
GLOBALSTAR M068         
1 32266U 07048D   25295.96671249 -.00000085  00000+0  10420-3 0  9998
2 32266  51.9879 272.7394 0001496  56.9284 320.4535 12.62831164833705
GLOBALSTAR M079         
1 37188U 10054A   25296.07079932 -.00000101  00000+0  17659-4 0  9992
2 37188  52.0018 110.4871 0000846 113.0689   1.3209 12.62268075692600
GLOBALSTAR M074         
1 37189U 10054B   25296.09817419 -.00000097  00000+0  39314-4 0  9991
2 37189  51.9996 109.7062 0000818  91.3470  27.1722 12.62272830693210
GLOBALSTAR M076         
1 37190U 10054C   25296.04410148 -.00000076  00000+0  15486-3 0  9996
2 37190  52.0009 110.0546 0000633 101.0183  10.7256 12.62267040692920
GLOBALSTAR M077         
1 37191U 10054D   25296.12497074 -.00000115  00000+0 -15102-3 0  9999
2 37191  52.0076  70.0433 0002024  48.9710 122.4453 12.36452518693261
